FLOCK 4X-37             
1 51009U 22002AB  23109.77065547  .00041297  00000+0  15887-2 0  9990
2 51009  97.4457 178.5521 0011289  88.1607 272.0924 15.26212052 69921
FLOCK 4X-15             
1 51010U 22002AC  23109.69878833  .00046307  00000+0  17853-2 0  9995
2 51010  97.4460 178.5191 0011234  85.9505 274.3017 15.26112034 69918
FLOCK 4X-29             
1 51011U 22002AD  23109.70275952  .00028451  00000+0  11006-2 0  9995
2 51011  97.4418 178.1822 0010959  83.8445 276.4041 15.26114023 69912
FLOCK 4X-27             
1 51012U 22002AE  23109.76729261  .00042762  00000+0  16437-2 0  9993
2 51012  97.4448 178.4769 0011359  88.9577 271.2963 15.26230521 69925
FLOCK 4X-12             
1 51015U 22002AH  23110.15430304  .00040283  00000+0  15469-2 0  9998
2 51015  97.4447 178.8911 0011619  83.9592 276.2970 15.26274816 69985
FLOCK 4X-25             
1 51016U 22002AJ  23110.15892173  .00038837  00000+0  14954-2 0  9995
2 51016  97.4424 178.7836 0011295  89.5986 270.6546 15.26196786 69981
FLOCK 4X-1              
1 51017U 22002AK  23109.43093175  .00031942  00000+0  12330-2 0  9996
2 51017  97.4421 177.9614 0011345  85.8681 274.3854 15.26157110 69870
FLOCK 4X-42             
1 51018U 22002AL  23109.69626034  .00046927  00000+0  18044-2 0  9998
2 51018  97.4396 178.1253 0011210  82.1528 278.0983 15.26197835 69912
FLOCK 4X-16             
1 51020U 22002AN  23109.75679289  .00060558  00000+0  23220-2 0  9996
2 51020  97.4403 178.2233 0010857  82.0594 278.1876 15.26223029 69929
FLOCK 4X-38             
1 51023U 22002AR  23109.62526032  .00047841  00000+0  18307-2 0  9992
2 51023  97.4451 178.4027 0011369  86.5126 273.7413 15.26350991 69902
FLOCK 4X-32             
1 51024U 22002AS  23109.68885346  .00058437  00000+0  22428-2 0  9997
2 51024  97.4458 178.5003 0011344  84.0711 276.1820 15.26196966 69911
FLOCK 4X-26             
1 51026U 22002AU  23109.68204176  .00059600  00000+0  22773-2 0  9991
2 51026  97.4413 178.2494 0011356  87.8436 272.4102 15.26338823 69915
FLOCK 4X-43             
1 51027U 22002AV  23109.16200698  .00023731  00000+0  91836-3 0  9993
2 51027  97.4411 177.6950 0011100  84.2862 275.9642 15.26138380 69839
FLOCK 4X-13             
1 51028U 22002AW  23109.75056069  .00059124  00000+0  22598-2 0  9993
2 51028  97.4409 178.2770 0011301  79.5766 280.6746 15.26331546 69924
FLOCK 4X-39             
1 51029U 22002AX  23109.41781391  .00044174  00000+0  16943-2 0  9996
2 51029  97.4411 177.9616 0010984  80.7414 279.5066 15.26298413 69874
FLOCK 4X-17             
1 51035U 22002BD  23110.13790185  .00057034  00000+0  21787-2 0  9996
2 51035  97.4450 178.7513 0008085  90.2375 269.9790 15.26389537 69976
FLOCK 4X-10             
1 51037U 22002BF  23109.72295416  .00054715  00000+0  21109-2 0  9999
2 51037  97.4463 178.4780 0010459  87.7578 272.4858 15.26051955 69917
FLOCK 4X-36             
1 51039U 22002BH  23109.72610183  .00049573  00000+0  19148-2 0  9999
2 51039  97.4460 178.4553 0009362  89.2284 271.0027 15.26049998 69913
FLOCK 4X-21             
1 51040U 22002BJ  23109.67354763  .00060405  00000+0  23205-2 0  9990
2 51040  97.4431 178.2210 0008172  89.5365 270.6810 15.26184634 69903
FLOCK 4X-31             
1 51041U 22002BK  23110.12647506  .00059424  00000+0  22613-2 0  9994
2 51041  97.4400 178.4930 0007494  88.1541 272.0556 15.26509326 69977
FLOCK 4X-34             
1 51042U 22002BL  23109.67249180  .00035658  00000+0  13716-2 0  9996
2 51042  97.4466 178.3748 0008728  92.7400 267.4838 15.26274714 69906
FLOCK 4X-6              
1 51043U 22002BM  23109.67358138  .00062119  00000+0  23678-2 0  9991
2 51043  97.4442 178.2697 0008407  88.7095 271.5106 15.26433659 69901
FLOCK 4X-28             
1 51045U 22002BP  23110.12517352  .00023860  00000+0  91830-3 0  9996
2 51045  97.4410 178.5502 0008066  79.0532 281.1613 15.26346351 69975
FLOCK 4X-19             
1 51046U 22002BQ  23109.98439239  .00097611  00000+0  32722-2 0  9995
2 51046  97.4429 178.8012 0006715 112.7402 247.4549 15.30494687 69968
FLOCK 4X-9              
1 51047U 22002BR  23110.12566994  .00038869  00000+0  15019-2 0  9993
2 51047  97.4458 178.8181 0009096  90.7425 269.4855 15.26101049 69970
FLOCK 4X-35             
1 51048U 22002BS  23110.12234745  .00053414  00000+0  20612-2 0  9998
2 51048  97.4382 178.4187 0008589  83.9598 276.2619 15.26067594 69970
FLOCK 4X-11             
1 51049U 22002BT  23109.67501055  .00021451  00000+0  82406-3 0  9994
2 51049  97.4400 178.0150 0007485  89.0528 271.1568 15.26434552 69904
FLOCK 4X-40             
1 51052U 22002BW  23109.15032085  .00057366  00000+0  22023-2 0  9995
2 51052  97.4402 177.4862 0008165  95.9078 264.3091 15.26222196 69820
FLOCK 4X-24             
1 51056U 22002CA  23109.94524283  .00057996  00000+0  22224-2 0  9994
2 51056  97.4399 178.3060 0007989  85.4842 274.7309 15.26281376 69940
FLOCK 4X-4              
1 51064U 22002CJ  23110.18247622  .00020733  00000+0  80343-3 0  9996
2 51064  97.4413 178.6140 0008889  80.3821 279.8422 15.26141979 69989
FLOCK 4X-7              
1 51065U 22002CK  23110.18843296  .00044417  00000+0  17081-2 0  9999
2 51065  97.4427 178.7865 0008926  89.7108 270.5153 15.26228784 69982
FLOCK 4X-14             
1 51066U 22002CL  23110.18661151  .00032042  00000+0  12390-2 0  9997
2 51066  97.4471 178.9851 0009344  89.1980 271.0329 15.26117512 69983
FLOCK 4Y-24             
1 55020U 23001M   23110.12701070  .00015008  00000+0  75953-3 0  9998
2 55020  97.4823 170.5804 0010615 205.6865 154.3842 15.17063657 16271
FLOCK 4Y-32             
1 55021U 23001N   23109.73000393  .00014735  00000+0  74600-3 0  9998
2 55021  97.4820 170.1864 0010854 203.1062 156.9685 15.17051813 16216
FLOCK 4Y-22             
1 55022U 23001P   23109.72635313  .00041714  00000+0  20992-2 0  9995
2 55022  97.4824 170.1983 0011220 198.1258 161.9577 15.17028908 16216
FLOCK 4Y-18             
1 55023U 23001Q   23109.72803546  .00017553  00000+0  88844-3 0  9996
2 55023  97.4852 170.2367 0010868 203.8477 156.2254 15.17022055 16215
FLOCK 4Y-14             
1 55024U 23001R   23109.72184763  .00039812  00000+0  19944-2 0  9996
2 55024  97.4847 170.2328 0010875 209.3158 150.7467 15.17203393 16213
FLOCK 4Y-30             
1 55025U 23001S   23108.66392666  .00038032  00000+0  19133-2 0  9995
2 55025  97.4854 169.2066 0010487 215.3109 144.7431 15.17070533 16055
FLOCK 4Y-19             
1 55026U 23001T   23109.72435209  .00036642  00000+0  18397-2 0  9991
2 55026  97.4818 170.1881 0011382 200.3507 159.7275 15.17140800 16218
FLOCK 4Y-25             
1 55027U 23001U   23110.11329507  .00035834  00000+0  17967-2 0  9994
2 55027  97.4815 170.5810 0010926 203.1638 156.9104 15.17197997 16276
FLOCK 4Y-5              
1 55028U 23001V   23108.72261384  .00017052  00000+0  86272-3 0  9995
2 55028  97.4851 169.2384 0011387 200.6818 159.3956 15.17038558 16068
FLOCK 4Y-10             
1 55029U 23001W   23108.66052491  .00027316  00000+0  13783-2 0  9996
2 55029  97.4844 169.2086 0010945 204.3925 155.6792 15.17036051 16051
FLOCK 4Y-29             
1 55030U 23001X   23110.10886880  .00035862  00000+0  18022-2 0  9993
2 55030  97.4812 170.5884 0011480 201.1321 158.9440 15.17112441 16277
FLOCK 4Y-17             
1 55031U 23001Y   23109.72279707  .00032316  00000+0  16242-2 0  9997
2 55031  97.4862 170.2516 0011187 206.1071 153.9600 15.17134845 16212
FLOCK 4Y-7              
1 55032U 23001Z   23109.11268173  .00015405  00000+0  78058-3 0  9990
2 55032  97.4824 169.6335 0012406 198.9694 161.1079 15.16997691 16122
FLOCK 4Y-28             
1 55033U 23001AA  23110.10228244  .00055317  00000+0  27343-2 0  9993
2 55033  97.4796 170.5795 0011569 202.2571 157.8162 15.17575716 16276
FLOCK 4Y-3              
1 55035U 23001AC  23109.16678392  .00042781  00000+0  21487-2 0  9996
2 55035  97.4805 169.7066 0013706 208.8378 151.2099 15.17064426 16135
FLOCK 4Y-1              
1 55039U 23001AG  23109.70249178  .00020150  00000+0  10172-2 0  9991
2 55039  97.4818 170.2094 0012217 199.2218 160.8556 15.17071306 16211
FLOCK 4Y-16             
1 55040U 23001AH  23110.16705803  .00030488  00000+0  15352-2 0  9997
2 55040  97.4869 170.7402 0011467 204.9114 155.1568 15.17079061 16285
FLOCK 4Y-33             
1 55042U 23001AK  23110.10563634  .00011993  00000+0  60687-3 0  9999
2 55042  97.4809 170.5833 0011812 199.3015 160.7772 15.17108875 16272
FLOCK 4Y-11             
1 55043U 23001AL  23110.16228118  .00011163  00000+0  57066-3 0  9997
2 55043  97.4858 170.7352 0011471 198.9715 161.1092 15.16772868 16287
FLOCK 4Y-4              
1 55055U 23001AY  23109.10865921  .00046232  00000+0  23244-2 0  9996
2 55055  97.4840 169.6543 0013362 206.2225 153.8333 15.17011600 16120
FLOCK 4Y-35             
1 55057U 23001BA  23109.17012029  .00042491  00000+0  21353-2 0  9990
2 55057  97.4846 169.7512 0012205 211.1518 148.8993 15.17064083 16130
FLOCK 4Y-20             
1 55063U 23001BG  23109.16303001  .00006588  00000+0  33576-3 0  9997
2 55063  97.4867 169.7827 0014243 211.7585 148.2790 15.17020113 16138
FLOCK 4Y-12             
1 55065U 23001BJ  23109.16903938  .00042946  00000+0  21587-2 0  9990
2 55065  97.4874 169.7864 0013756 210.7236 149.3193 15.17034675 16136
FLOCK 4Y-6              
1 55066U 23001BK  23110.08842397  .00018670  00000+0  94293-3 0  9997
2 55066  97.4859 170.6804 0013933 210.0561 149.9874 15.17050965 16273
FLOCK 4Y-15             
1 55068U 23001BM  23109.15515172  .00012244  00000+0  61987-3 0  9998
2 55068  97.4824 169.7131 0014779 207.2837 152.7621 15.17052743 16135
FLOCK 4Y-9              
1 55069U 23001BN  23110.14901702  .00013445  00000+0  67965-3 0  9994
2 55069  97.4857 170.7381 0014395 212.5250 147.5098 15.17088550 16284
FLOCK 4Y-26             
1 55070U 23001BP  23110.14691224  .00023340  00000+0  11756-2 0  9992
2 55070  97.4811 170.6861 0014626 201.4717 158.5904 15.17091090 16281
FLOCK 4Y-8              
1 55071U 23001BQ  23108.96342653  .00015442  00000+0  78132-3 0  9995
2 55071  97.4830 169.5265 0014544 209.9532 150.0870 15.17022314 16108
